{"type": "FeatureCollection", "features": [ {"type": "Feature", "properties": {"norad_id": 39574, "name": "GPM-CORE", "group": "resource", "lat": -4.842683769475969, "lon": 37.603152045741616, "alt_km": 432.28463197610927, "timestamp": "2025-12-11T22:43:46.928534+00:00", "meta": {"OBJECT_NAME": "GPM-CORE", "OBJECT_ID": "2014-009C", "EPOCH": "2025-12-11T15:42:48.182976", "MEAN_MOTION": 15.44436109, "ECCENTRICITY": 0.00098764, "INCLINATION": 64.9736, "RA_OF_ASC_NODE": 216.313, "ARG_OF_PERICENTER": 244.9229, "MEAN_ANOMALY": 115.0887, "EPHEMERIS_TYPE": 0, "CLASSIFICATION_TYPE": "U", "NORAD_CAT_ID": 39574, "ELEMENT_SET_NO": 999, "REV_AT_EPOCH": 66884, "BSTAR": 0.00024024795, "MEAN_MOTION_DOT": 0.00010956, "MEAN_MOTION_DDOT": 0}, "tle": {"line1": "1 39574U 14009C   25345.65472434  .00010956  00000+0  24025-3 0  9992", "line2": "2 39574  64.9736 216.3130 0009876 244.9229 115.0887 15.44436109668842"}}, "geometry": {"type": "Point", "coordinates": [37.603152045741616, -4.842683769475969]}}, {"type": "Feature", "properties": {"norad_id": 39634, "name": "SENTINEL-1A", "group": "resource", "lat": -75.17038408293743, "lon": 24.108864732127994, "alt_km": 703.8959289279073, "timestamp": "2025-12-11T22:43:46.928544+00:00", "meta": {"OBJECT_NAME": "SENTINEL-1A", "OBJECT_ID": "2014-016A", "EPOCH": "2025-12-11T14:51:22.688640", "MEAN_MOTION": 14.59199865, "ECCENTRICITY": 0.00012453, "INCLINATION": 98.1804, "RA_OF_ASC_NODE": 350.8767, "ARG_OF_PERICENTER": 82.4355, "MEAN_ANOMALY": 277.6986, "EPHEMERIS_TYPE": 0, "CLASSIFICATION_TYPE": "U", "NORAD_CAT_ID": 39634, "ELEMENT_SET_NO": 999, "REV_AT_EPOCH": 62266, "BSTAR": 7.9117505e-05, "MEAN_MOTION_DOT": 3.27e-06, "MEAN_MOTION_DDOT": 0}, "tle": {"line1": "1 39634U 14016A   25345.61901260  .00000327  00000+0  79118-4 0  9992", "line2": "2 39634  98.1804 350.8767 0001245  82.4355 277.6986 14.59199865622666"}}, "geometry": {"type": "Point", "coordinates": [24.108864732127994, -75.17038408293743]}}, {"type": "Feature", "properties": {"norad_id": 39731, "name": "KAZEOSAT 1", "group": "resource", "lat": -53.459860970859694, "lon": 69.29328129930708, "alt_km": 759.3432303600584, "timestamp": "2025-12-11T22:43:46.928554+00:00", "meta": {"OBJECT_NAME": "KAZEOSAT 1", "OBJECT_ID": "2014-024A", "EPOCH": "2025-12-11T14:39:17.402976", "MEAN_MOTION": 14.42062007, "ECCENTRICITY": 0.00011104, "INCLINATION": 98.343, "RA_OF_ASC_NODE": 57.5429, "ARG_OF_PERICENTER": 94.876, "MEAN_ANOMALY": 265.2557, "EPHEMERIS_TYPE": 0, "CLASSIFICATION_TYPE": "U", "NORAD_CAT_ID": 39731, "ELEMENT_SET_NO": 999, "REV_AT_EPOCH": 61152, "BSTAR": 0.00016948396, "MEAN_MOTION_DOT": 5.14e-06, "MEAN_MOTION_DDOT": 0}, "tle": {"line1": "1 39731U 14024A   25345.61061809  .00000514  00000+0  16948-3 0  9994", "line2": "2 39731  98.3430  57.5429 0001110  94.8760 265.2557 14.42062007611524"}}, "geometry": {"type": "Point", "coordinates": [69.29328129930708, -53.459860970859694]}}, {"type": "Feature", "properties": {"norad_id": 39766, "name": "ALOS-2", "group": "resource", "lat": 79.63836445421875, "lon": 31.199190594137363, "alt_km": 622.7564524340441, "timestamp": "2025-12-11T22:43:46.928565+00:00", "meta": {"OBJECT_NAME": "ALOS-2", "OBJECT_ID": "2014-029A", "EPOCH": "2025-12-11T12:36:55.639008", "MEAN_MOTION": 14.79464109, "ECCENTRICITY": 0.0001283, "INCLINATION": 97.9223, "RA_OF_ASC_NODE": 80.3889, "ARG_OF_PERICENTER": 97.9524, "MEAN_ANOMALY": 262.1834, "EPHEMERIS_TYPE": 0, "CLASSIFICATION_TYPE": "U", "NORAD_CAT_ID": 39766, "ELEMENT_SET_NO": 999, "REV_AT_EPOCH": 62383, "BSTAR": 0.0004677718, "MEAN_MOTION_DOT": 3.443e-05, "MEAN_MOTION_DDOT": 0}, "tle": {"line1": "1 39766U 14029A   25345.52564397  .00003443  00000+0  46777-3 0  9994", "line2": "2 39766  97.9223  80.3889 0001283  97.9524 262.1834 14.79464109623834"}}, "geometry": {"type": "Point", "coordinates": [31.199190594137363, 79.63836445421875]}}, {"type": "Feature", "properties": {"norad_id": 40010, "name": "KAZEOSAT 2", "group": "resource", "lat": -22.57276892521086, "lon": -166.53674791693922, "alt_km": 621.7694846484046, "timestamp": "2025-12-11T22:43:46.928575+00:00", "meta": {"OBJECT_NAME": "KAZEOSAT 2", "OBJECT_ID": "2014-033A", "EPOCH": "2025-12-11T14:44:50.181216", "MEAN_MOTION": 14.85166824, "ECCENTRICITY": 0.00075948, "INCLINATION": 97.5506, "RA_OF_ASC_NODE": 189.9871, "ARG_OF_PERICENTER": 210.4879, "MEAN_ANOMALY": 149.5896, "EPHEMERIS_TYPE": 0, "CLASSIFICATION_TYPE": "U", "NORAD_CAT_ID": 40010, "ELEMENT_SET_NO": 999, "REV_AT_EPOCH": 62111, "BSTAR": 0.00018519448, "MEAN_MOTION_DOT": 1.536e-05, "MEAN_MOTION_DDOT": 0}, "tle": {"line1": "1 40010U 14033A   25345.61446969  .00001536  00000+0  18519-3 0  9991", "line2": "2 40010  97.5506 189.9871 0007594 210.4879 149.5896 14.85166824621116"}}, "geometry": {"type": "Point", "coordinates": [-166.53674791693922, -22.57276892521086]}}, {"type": "Feature", "properties": {"norad_id": 40011, "name": "HODOYOSHI-4", "group": "resource", "lat": 57.42752903731207, "lon": 162.90182598917062, "alt_km": 613.6092700941808, "timestamp": "2025-12-11T22:43:46.928586+00:00", "meta": {"OBJECT_NAME": "HODOYOSHI-4", "OBJECT_ID": "2014-033B", "EPOCH": "2025-12-11T14:23:43.319616", "MEAN_MOTION": 14.8747491, "ECCENTRICITY": 0.00231622, "INCLINATION": 97.5414, "RA_OF_ASC_NODE": 174.54, "ARG_OF_PERICENTER": 204.7082, "MEAN_ANOMALY": 155.3028, "EPHEMERIS_TYPE": 0, "CLASSIFICATION_TYPE": "U", "NORAD_CAT_ID": 40011, "ELEMENT_SET_NO": 999, "REV_AT_EPOCH": 62091, "BSTAR": 0.00039824203, "MEAN_MOTION_DOT": 3.574e-05, "MEAN_MOTION_DDOT": 0}, "tle": {"line1": "1 40011U 14033B   25345.59980694  .00003574  00000+0  39824-3 0  9993", "line2": "2 40011  97.5414 174.5400 0023162 204.7082 155.3028 14.87474910620913"}}, "geometry": {"type": "Point", "coordinates": [162.90182598917062, 57.42752903731207]}}, {"type": "Feature", "properties": {"norad_id": 40013, "name": "DEIMOS-2", "group": "resource", "lat": -19.96219205032071, "lon": 38.99149153462212, "alt_km": 594.1191691812883, "timestamp": "2025-12-11T22:43:46.928597+00:00", "meta": {"OBJECT_NAME": "DEIMOS-2", "OBJECT_ID": "2014-033D", "EPOCH": "2025-12-11T15:24:08.751744", "MEAN_MOTION": 14.92965831, "ECCENTRICITY": 8.596e-05, "INCLINATION": 97.6061, "RA_OF_ASC_NODE": 221.4784, "ARG_OF_PERICENTER": 91.7559, "MEAN_ANOMALY": 268.3759, "EPHEMERIS_TYPE": 0, "CLASSIFICATION_TYPE": "U", "NORAD_CAT_ID": 40013, "ELEMENT_SET_NO": 999, "REV_AT_EPOCH": 60973, "BSTAR": 0.00035168365, "MEAN_MOTION_DOT": 3.598e-05, "MEAN_MOTION_DDOT": 0}, "tle": {"line1": "1 40013U 14033D   25345.64176796  .00003598  00000+0  35168-3 0  9994", "line2": "2 40013  97.6061 221.4784 0000859  91.7559 268.3759 14.92965831609738"}}, "geometry": {"type": "Point", "coordinates": [38.99149153462212, -19.96219205032071]}}, {"type": "Feature", "properties": {"norad_id": 40015, "name": "HODOYOSHI-3", "group": "resource", "lat": -8.253407192615148, "lon": 152.92903551833672, "alt_km": 622.4681604766301, "timestamp": "2025-12-11T22:43:46.928607+00:00", "meta": {"OBJECT_NAME": "HODOYOSHI-3", "OBJECT_ID": "2014-033F", "EPOCH": "2025-12-11T11:26:43.975104", "MEAN_MOTION": 14.84800775, "ECCENTRICITY": 0.00318658, "INCLINATION": 97.6199, "RA_OF_ASC_NODE": 151.3668, "ARG_OF_PERICENTER": 252.2457, "MEAN_ANOMALY": 107.528, "EPHEMERIS_TYPE": 0, "CLASSIFICATION_TYPE": "U", "NORAD_CAT_ID": 40015, "ELEMENT_SET_NO": 999, "REV_AT_EPOCH": 61976, "BSTAR": 0.0003586249, "MEAN_MOTION_DOT": 3.019e-05, "MEAN_MOTION_DDOT": 0}, "tle": {"line1": "1 40015U 14033F   25345.47689786  .00003019  00000+0  35862-3 0  9994", "line2": "2 40015  97.6199 151.3668 0031865 252.2457 107.5280 14.84800775619769"}}, "geometry": {"type": "Point", "coordinates": [152.92903551833672, -8.253407192615148]}}, {"type": "Feature", "properties": {"norad_id": 40053, "name": "SPOT 7", "group": "resource", "lat": 36.72496435891877, "lon": -125.8680647601948, "alt_km": 687.6019145941864, "timestamp": "2025-12-11T22:43:46.928617+00:00", "meta": {"OBJECT_NAME": "SPOT 7", "OBJECT_ID": "2014-034A", "EPOCH": "2025-12-11T15:30:09.124416", "MEAN_MOTION": 14.60732261, "ECCENTRICITY": 0.00015593, "INCLINATION": 98.0901, "RA_OF_ASC_NODE": 47.7462, "ARG_OF_PERICENTER": 87.319, "MEAN_ANOMALY": 272.8189, "EPHEMERIS_TYPE": 0, "CLASSIFICATION_TYPE": "U", "NORAD_CAT_ID": 40053, "ELEMENT_SET_NO": 999, "REV_AT_EPOCH": 60975, "BSTAR": 0.00023342874, "MEAN_MOTION_DOT": 1.093e-05, "MEAN_MOTION_DDOT": 0}, "tle": {"line1": "1 40053U 14034A   25345.64593894  .00001093  00000+0  23343-3 0  9991", "line2": "2 40053  98.0901  47.7462 0001559  87.3190 272.8189 14.60732261609755"}}, "geometry": {"type": "Point", "coordinates": [-125.8680647601948, 36.72496435891877]}}, {"type": "Feature", "properties": {"norad_id": 40072, "name": "SKYSAT-B", "group": "resource", "lat": 1.753886367396573, "lon": -70.64693640449073, "alt_km": 612.7610380014285, "timestamp": "2025-12-11T22:43:46.928627+00:00", "meta": {"OBJECT_NAME": "SKYSAT-B", "OBJECT_ID": "2014-037D", "EPOCH": "2025-12-11T09:48:17.337600", "MEAN_MOTION": 14.87320966, "ECCENTRICITY": 0.00060438, "INCLINATION": 98.3608, "RA_OF_ASC_NODE": 289.0442, "ARG_OF_PERICENTER": 154.2162, "MEAN_ANOMALY": 205.9355, "EPHEMERIS_TYPE": 0, "CLASSIFICATION_TYPE": "U", "NORAD_CAT_ID": 40072, "ELEMENT_SET_NO": 999, "REV_AT_EPOCH": 61804, "BSTAR": 0.00037266548, "MEAN_MOTION_DOT": 3.304e-05, "MEAN_MOTION_DDOT": 0}, "tle": {"line1": "1 40072U 14037D   25345.40853400  .00003304  00000+0  37267-3 0  9998", "line2": "2 40072  98.3608 289.0442 0006043 154.2162 205.9355 14.87320966618046"}}, "geometry": {"type": "Point", "coordinates": [-70.64693640449073, 1.753886367396573]}}]}